1 35065U 93036AHU 18240.97973812 +.00000213 +00000-0 +77336-4 0  9997
2 35065 074.0220 084.2142 0021305 134.0655 226.2258 14.38937223300037
1 35066U 93036AHV 18241.70706634 +.00001434 +00000-0 +25630-3 0  9991
2 35066 074.0158 253.3350 0030114 352.7111 007.3616 14.67625431276509
1 35067U 93036AHW 18241.21239654 +.00000875 +00000-0 +17501-3 0  9997
2 35067 073.7552 185.9486 0070453 264.0171 095.2962 14.62094517494451
1 35069U 93036AHY 11276.68213095 +.00011156 +00000-0 +26034-2 0  9996
2 35069 074.0224 016.0297 0134362 113.1305 257.0191 14.49371122131455
1 35071U 93036AJA 18238.21935662  .00000307  00000-0  46012-4 0  9990
2 35071  73.9425  68.4494 0114431 234.0411 125.0108 14.75442544502444
1 35072U 93036AJB 18239.06484217  .00001632  00000-0  43172-3 0  9995
2 35072  74.0908 128.4438 0053720  71.4650 289.2336 14.48761187491809
1 35073U 93036AJC 18240.71534059  .00000724  00000-0  19081-3 0  9993
2 35073  74.0223  17.7273 0039354  65.3918 295.1334 14.50353280494770
1 35076U 93036AJF 18241.85789517 +.00000705 +00000-0 +13095-3 0  9991
2 35076 073.9714 195.5973 0072016 321.6835 037.9228 14.65677292233173
1 35077U 97051PC  18242.11550564  .00009499  00000-0  87579-3 0  9998
2 35077  86.2702  11.4577 0045076 247.0484 112.5986 14.93778039496399
1 35078U 97051PD  18176.45636764 +.00104553 +00000-0 +26949-2 0  9999
2 35078 086.3474 071.5354 0004364 010.0812 350.0528 15.38785846267071
1 35079U 97051PE  18177.82875126  .00003043  00000-0  13337-2 0  9998
2 35079  86.4304 205.3466 0147495 217.9883 141.0831 14.17768931473925
1 35080U 97051PF  18242.36217195  .00001736  00000-0  79293-3 0  9999
2 35080  86.2402 121.2559 0181506 102.1542 260.0039 14.12608918481778
1 35081U 97051PG  15168.43824283 +.00000045 +00000-0 +00000-0 0  9993
2 35081 086.4211 218.9276 0054232 235.2452 124.3683 15.25347491329647
1 35084U 91025AE  14189.96226403 +.00000003 +00000-0 +10000-3 0  9999
2 35084 074.1425 023.0544 5034394 070.9529 336.9925 04.44184140083179
1 35086U 99025DJN 10223.93248307 +.00002251 +00000-0 +73660-3 0  9996
2 35086 098.9468 276.8369 0108441 122.2094 240.0716 14.36216353092800
1 35087U 99025DJP 11273.16009402 +.00009918 +00000-0 +16234-2 0  9999
2 35087 098.3441 247.6479 0240762 182.1458 159.1022 14.53528430212294
1 35088U 99025DJQ 18238.35586786  .00000488  00000-0  32959-3 0  9990
2 35088  94.6842 275.1883 0367031 185.0692 174.6712 13.73474193533555
1 35089U 99025DJR 18240.35127561 +.00000364 +00000-0 +21321-3 0  9990
2 35089 098.7900 288.4879 0031768 132.3086 228.0787 14.14090985231937
1 35090U 99025DJS 18241.66663177 +.00000290 +00000-0 +20543-3 0  9998
2 35090 099.0373 185.3269 0063141 245.3598 114.0984 14.04710656287799
1 35091U 99025DJT 18242.11259005  .00000868  00000-0  34840-3 0  9997
2 35091  98.7455 296.5718 0078811 264.6010  94.6176 14.29128379517743
1 35092U 99025DJU 12040.42598309 -.00231572 +00000-0 -94427-1 0  9990
2 35092 098.8774 103.6567 0087045 321.9990 037.5830 14.27049512191337
1 35093U 99025DJV 18240.94069945 +.00001400 +00000-0 +32542-3 0  9990
2 35093 098.6679 297.5195 0160571 097.5722 264.3743 14.48980270274350
1 35094U 99025DJW 18240.58600874  .00001810  00000-0  42174-3 0  9990
2 35094  97.7961 151.8132 0187045 227.8387 254.9994 14.45782571579664
1 35095U 99025DJX 18238.99973899  .00000832  00000-0  17433-3 0  9996
2 35095  98.5213 311.5826 0218735  45.3440 316.5353 14.48641959531459
1 35096U 99025DJY 13101.65583005 +.00011806 +00000-0 +21026-2 0  9995
2 35096 097.7205 253.7835 0169838 280.8699 077.7385 14.58186375264125
1 35097U 99025DJZ 18239.45795237  .00001046  00000-0  12682-3 0  9997
2 35097  98.6562 115.5820 0186255 315.3645  43.2692 14.74737413553244
1 35099U 99025DKB 18241.50247962  .00002783  00000-0  19802-3 0  9995
2 35099  98.2782 350.7867 0143756 310.3904  48.4841 14.97643734558157
1 35102U 99025DKE 18241.92159604 +.00000177 +00000-0 +95876-4 0  9992
2 35102 098.7214 274.7752 0063791 290.3072 069.1259 14.23199648270094
1 35104U 99025DKG 18241.34878771  .00000166  00000-0  10563-3 0  9990
2 35104  98.8077 273.1800 0032489 222.7632 203.1724 14.16119078522797
1 35105U 99025DKH 18240.80509583  .00000104  00000-0  46042-4 0  9997
2 35105  98.9718  81.5478 0123230  33.2541  24.3323 14.39345370561435
1 35108U 99025DKL 18238.86310992  .00000189  00000-0  13503-3 0  9995
2 35108  98.9242 269.3433 0137607 328.7185  30.5847 14.04252558518176
1 35109U 99025DKM 18241.91784876 +.00000080 +00000-0 +52625-4 0  9991
2 35109 098.6812 272.5390 0159216 154.0913 206.8344 14.17896416264173
1 35110U 99025DKN 18145.65187971 +.00001200 +00000-0 +33922-3 0  9993
2 35110 096.6553 305.3091 0126954 185.8976 174.0731 14.42225547542288
1 35111U 99025DKP 18242.17797718 -.00000034  00000-0  85521-5 0  9994
2 35111  99.4611 141.1848 0026676   5.5265 354.6191 14.07551656552461
1 35114U 99025DKS 18240.20002765 +.00004066 +00000-0 +19741-3 0  9997
2 35114 097.7326 033.9122 0162416 238.5891 119.9367 15.08180783281329
1 35116U 99025DKU 18240.32195958  .00000376  00000-0  20932-3 0  9993
2 35116  98.9097 276.2045 0069613 127.9897 232.7591 14.15757137519111
1 35117U 99025DKV 18240.40402975 +.00001272 +00000-0 +46069-3 0  9998
2 35117 098.7870 305.3772 0053148 238.8244 177.7799 14.34458000271957
1 35118U 99025DKW 18240.28943334  .00001192  00000-0  17355-3 0  9991
2 35118  97.8229  47.9268 0181055 109.1717 252.9181 14.67055948572167
1 35119U 99025DKX 18239.34296619  .00001815  00000-0  36246-3 0  9996
2 35119  99.9660 272.4733 0052000  11.3585  45.5691 14.62764221563164
1 35120U 99025DKY 18237.36425094  .00000526  00000-0  32660-3 0  9993
2 35120  98.0077  67.5921 0170572  62.9291 298.9168 14.01580542545899
1 35121U 99025DKZ 18242.36252425  .00000341  00000-0  21724-3 0  9990
2 35121  98.3171 292.0986 0161480  84.2925 277.6630 14.03000399542459
1 35122U 99025DLA 18241.03760045 +.00000067 +00000-0 +61251-4 0  9991
2 35122 098.9512 269.4487 0026739 150.0792 210.1913 14.11513359262831
1 35123U 99025DLB 18240.50006484  .00000208  00000-0  12240-3 0  9993
2 35123  98.9165 340.7676 0057320 114.8877 245.8271 14.17538315516177
1 35125U 99025DLD 17069.16831840  .00000646  00000-0  29732-3 0  9997
2 35125  98.2930 214.6120 0063499 314.4751  45.1715 14.20081575458992
1 35128U 99025DLG 18240.25745269  .00001399  00000-0  81339-3 0  9998
2 35128  98.3324 253.4383 0139557 101.4129 260.2753 14.05300009530944
1 35129U 99025DLH 18238.19695962 +.00000670 +00000-0 +39568-3 0  9991
2 35129 098.2657 238.2424 0142177 053.2235 308.1887 14.05786973194870
1 35130U 99025DLJ 18242.39475117  .00001037  00000-0  54517-3 0  9997
2 35130  99.0851 300.0830 0051624 239.8051 119.8003 14.15733968571255
1 35134U 99025DLN 18240.70605857 +.00001406 +00000-0 +40439-3 0  9998
2 35134 098.9193 049.7075 0064917 182.1055 177.9871 14.45273598510114
1 35135U 99025DLP 18242.06541944  .00000130  00000-0  82329-4 0  9994
2 35135  98.7919 274.3349 0087354  34.3730 353.8365 14.17762226501738
1 35136U 99025DLQ 18238.36169065  .00000844  00000-0  32756-3 0  9993
2 35136  98.7646 294.5551 0075261 256.4102 102.8689 14.31075196501009
1 35137U 99025DLR 18240.48464387  .00001669  00000-0  58943-3 0  9997
2 35137  99.0832 329.4547 0244016 303.6387 115.9010 14.20905816532242
1 35139U 99025DLT 18238.92534847 +.00000114 +00000-0 +76023-4 0  9998
2 35139 098.7877 269.9628 0072435 046.7016 314.0169 14.17369775263764
1 35140U 99025DLU 18241.41492167  .00000050  00000-0  30122-4 0  9995
2 35140  98.6126 298.5187 0300494 136.6028 291.4971 14.18801062498648
1 35141U 99025DLV 18240.94750265 +.00000833 +00000-0 +51731-3 0  9996
2 35141 099.1102 292.6076 0080866 310.8098 173.9175 14.06323046217425
1 35142U 99025DLW 18241.56035054  .00000036  00000-0  63055-4 0  9996
2 35142  99.1362 270.8190 0108991 233.2814 281.5608 13.89157458488589
1 35144U 99025DLY 18240.34597425 +.00000595 +00000-0 +25555-3 0  9990
2 35144 098.8205 286.1418 0044720 296.9248 062.7367 14.28000458270134
1 35145U 99025DLZ 18239.22599513  .00004237  00000-0  26114-3 0  9995
2 35145  99.6184  32.0446 0111310 222.5601 136.6953 15.05707361573352
1 35146U 99025DMA 18242.14816472  .00001258  00000-0  23301-3 0  9992
2 35146  98.1620   4.4976 0257126 102.1421 260.8702 14.47856737556701
1 35147U 99025DMB 18242.17636070  .00000885  00000-0  30811-3 0  9999
2 35147  99.4970 320.8616 0053454  78.9000 281.8188 14.37451960553369
1 35148U 99025DMC 18240.53065429 +.00001059 +00000-0 +24410-3 0  9994
2 35148 098.9109 148.5400 0091196 313.0535 046.3049 14.55230127574492
1 35150U 99025DME 14341.60868532 +.00000638 +00000-0 +15071-3 0  9994
2 35150 099.2643 278.8292 0135861 065.1984 296.3271 14.52810999371373
1 35152U 99025DMG 18241.49923878 +.00000421 +00000-0 +44330-3 0  9991
2 35152 099.6259 342.8088 0198977 057.6874 304.3373 13.72216428256371
1 35153U 99025DMH 18240.81365087 +.00000352 +00000-0 +64481-4 0  9992
2 35153 098.9635 229.9560 0205299 355.3551 004.5737 14.60779303582513
1 35154U 99025DMJ 18239.02644375 +.00000103 +00000-0 +67826-4 0  9994
2 35154 099.3968 162.6151 0187762 299.2095 059.0410 14.14638681268718
1 35155U 99025DMK 18241.13100862 +.00000375 +00000-0 +22000-3 0  9993
2 35155 098.7805 301.8986 0028194 144.9979 215.3054 14.13833421350479
1 35156U 99025DML 18240.34143516 -.00000042  00000-0  19818-6 0  9997
2 35156  98.8157 273.9401 0039135 114.9595 245.5647 14.07758336551403
1 35159U 99025DMP 18241.91075418 +.00000752 +00000-0 +35540-3 0  9993
2 35159 098.9048 225.6430 0015045 341.7830 048.0300 14.22774466234777
1 35160U 99025DMQ 18238.58765455 +.00000166 +00000-0 +68967-4 0  9990
2 35160 099.1383 156.7582 0189905 043.1373 318.4511 14.30765146267844
1 35161U 99025DMR 18241.10424005  .00001495  00000-0  21747-3 0  9996
2 35161  99.5400 189.6616 0108100 257.7618 101.1463 14.74091708573178
1 35162U 99025DMS 18242.23873699  .00001787  00000-0  46474-3 0  9997
2 35162  96.7442  41.8838 0106841 349.1159  10.7727 14.47155072567654
1 35163U 99025DMT 18240.20485471 +.00000538 +00000-0 +13205-3 0  9999
2 35163 099.1458 243.7681 0119327 305.7484 053.2658 14.53153433298203
